GORIZONT 1 [-]          
1 11158U 78118A   22011.02666942 -.00000003  00000+0  00000+0 0  9994
2 11158  11.1897 211.9611 3520373 272.2741  48.5348  1.00261947106711
GORIZONT 2 [-]          
1 11440U 79062A   22011.86335663 -.00000081  00000+0  00000+0 0  9998
2 11440   9.6475 303.6977 0003140 320.7409 234.4896  1.00236734121805
GORIZONT 3 [-]          
1 11648U 79105A   22011.92875848  .00000150  00000+0  00000+0 0  9993
2 11648   9.8006 305.0866 0011892 208.2927 337.5251  1.00233098106249
GORIZONT 4 [-]          
1 11841U 80049A   22011.64431456 -.00000188  00000+0  00000+0 0  9991
2 11841  10.9375 310.6466 0001954   5.3257 201.7245  0.98631575217565
GORIZONT 5 [-]          
1 13092U 82020A   22011.19254112 -.00000162  00000+0  00000+0 0  9996
2 13092  11.9036 315.8477 0032677 206.8179 329.3776  0.98532575105658
GORIZONT 6 [-]          
1 13624U 82103A   22011.55102715  .00000120  00000+0  00000+0 0  9993
2 13624  10.8126 315.8391 0000562 142.8920  69.3619  1.00186575104715
GORIZONT 7 [-]          
1 14160U 83066A   22010.92700990  .00000006  00000+0  00000+0 0  9990
2 14160  12.4251 324.9408 0010286 320.5623 218.8982  0.98346353138839
GORIZONT 8 [-]          
1 14532U 83118A   22011.63322333 -.00000172  00000+0  00000+0 0  9996
2 14532  12.5839 326.7432 0029050 141.8826 233.6513  0.98271232104617
GORIZONT 9 [-]          
1 14940U 84041A   22011.86492463 -.00000244  00000+0  00000+0 0  9992
2 14940  11.7821 324.8563 0003247 209.6240 338.8419  1.00307069105727
GORIZONT 10 [-]         
1 15144U 84078A   22011.50657413 -.00000245  00000+0  00000+0 0  9999
2 15144  11.8682 325.8648 0001427  41.1974 210.8619  1.00179722138388
GORIZONT 11 [-]         
1 15484U 85007A   22011.56301259  .00000064  00000+0  00000+0 0  9997
2 15484  12.0328 327.8150 0002610 112.4502 243.7037  1.00318265136406
GORIZONT 12 [-]         
1 16769U 86044A   22011.73933240 -.00000353  00000+0  00000+0 0  9998
2 16769  12.6099 333.1062 0001032 324.7384 189.1499  1.00269780131057
GORIZONT 13 [-]         
1 17083U 86090A   22011.70055587 -.00000153  00000+0  00000+0 0  9993
2 17083  14.4321 340.1260 0015240 338.4999  24.9306  0.96726926103004
GORIZONT 14 [-]         
1 17969U 87040A   22011.56580358 -.00000114  00000+0  00000+0 0  9992
2 17969  13.4540 331.6671 0029645 167.2089 200.6697  0.97659074104065
GORIZONT 15 [-]         
1 19017U 88028A   22011.56475697 -.00000135  00000+0  00000+0 0  9997
2 19017  14.6873 343.0282 0035411 149.9467 200.2351  0.97829449103677
GORIZONT 16 [-]         
1 19397U 88071A   22011.63637442 -.00000153  00000+0  00000+0 0  9992
2 19397  13.5456 341.7258 0015276  49.9178 112.0371  0.99990287122063
GORIZONT 17 [-]         
1 19765U 89004A   22012.00298126  .00000065  00000+0  00000+0 0  9993
2 19765  14.0605 345.0147 0021948 122.5545  61.8635  0.99063692119541
GORIZONT 18 [-]         
1 20107U 89052A   22011.63913409 -.00000213  00000+0  00000+0 0  9990
2 20107  14.0901 346.2889 0034788 314.9449 208.1028  0.99405457118331
GORIZONT 19 [-]         
1 20263U 89081A   22011.56911787  .00000126  00000+0  00000+0 0  9996
2 20263  13.8236 345.5142 0001332 240.4269 130.9447  1.00232026 31129
GORIZONT 20 [-]         
1 20659U 90054A   22011.50295104 -.00000061  00000+0  00000+0 0  9998
2 20659  14.2342 348.3599 0005354 153.7658 219.0419  1.00320400115477
GORIZONT 21 [-]         
1 20923U 90094A   22012.10179959  .00000095  00000+0  00000+0 0  9998
2 20923  14.2360 349.1308 0002688 203.7507 147.8826  1.00325623114228
GORIZONT 22 [-]         
1 20953U 90102A   22012.36955977 -.00000302  00000+0  00000+0 0  9993
2 20953  14.1944 349.4870 0004211  13.2624 337.8538  1.00381656114198
GORIZONT 23 [-]         
1 21533U 91046A   22012.14077208 -.00000163  00000+0  00000+0 0  9999
2 21533  14.9110 353.5762 0005080 325.9567 209.4975  0.98910473104735
GORIZONT 24 [-]         
1 21759U 91074A   22011.36811155 -.00000122  00000+0  00000+0 0  9995
2 21759  15.0456 355.4495 0016270 222.4569 137.9847  0.98442988109032
GORIZONT 25 [-]         
1 21922U 92017A   22011.70439347 -.00000099  00000+0  00000+0 0  9995
2 21922  14.5927 354.8296 0029254  72.6410 297.2772  0.99857951108799
GORIZONT 26 [-]         
1 22041U 92043A   22012.20567660 -.00000203  00000+0  00000+0 0  9990
2 22041  14.7416 356.7832 0029509 232.0573 310.9989  0.99246373107443
GORIZONT 27 [-]         
1 22245U 92082A   22011.73491987 -.00000208  00000+0  00000+0 0  9999
2 22245  14.6633 356.4533 0013837   2.6718 168.9480  1.00223307110911
GORIZONT 28 [-]         
1 22880U 93069A   22011.63505493 -.00000050  00000+0  00000+0 0  9992
2 22880  14.7591   0.2576 0033025 124.0053 227.1487  0.99656381103009
GORIZONT 29 [-]         
1 22907U 93072A   22011.86507875 -.00000370  00000+0  00000+0 0  9992
2 22907  14.6758 359.7427 0011756 342.1822 199.2895  1.00136804102977
GORIZONT 30 [-]         
1 23108U 94030A   22011.93957356 -.00000327  00000+0  00000+0 0  9994
2 23108  14.6808   0.6732 0000363   3.0614 185.2267  1.00381185101276
GORIZONT 31 [-]         
1 23775U 96005A   22012.25583432  .00000060  00000+0  00000+0 0  9997
2 23775  14.5187   6.7983 0016981 196.1694 197.0397  0.99895585 94890
GORIZONT 32 [-]         
1 23880U 96034A   22011.33601521 -.00000300  00000+0  00000+0 0  9992
2 23880  14.4614   7.3322 0009859 350.7218 185.4103  1.00180247 93824
GORIZONT 33 [-]         
1 26372U 00029A   22011.58250844 -.00000154  00000+0  00000+0 0  9992
2 26372  13.0497  18.3377 0003665  51.9304 149.9825  1.00387811 79202
